219P/LINEAR,e,11.5319,230.9712,107.4265,3.649707,0.1413569,0.35393893,220.7130,06/03.0/2021,2000,g 11.0,4.0
# From MPEC 2021-BE3
220P/McNaught,e,8.1288,150.1025,180.5302,3.115502,0.1792306,0.50171961,31.2537,06/03.0/2021,2000,g 15.0,4.0
# From MPEC 2021-J28
221P/LINEAR,e,11.4270,229.7042,40.1001,3.456177,0.1533946,0.49272202,329.6215,06/03.0/2021,2000,g 14.5,4.0
# From MPC 92277
222P/LINEAR,e,5.0971,6.7808,346.2448,2.899363,0.1996412,0.71462634,145.4799,06/03.0/2021,2000,g 20.0,4.0
# From MPEC 2021-F20
223P/Skiff,e,27.0238,346.7704,37.8163,4.159116,0.1161990,0.41597615,99.6385,06/03.0/2021,2000,g 14.5,4.0
# From MPC 75727
224P/LINEAR-NEAT,e,13.2986,40.1833,16.6925,3.444140,0.1541994,0.40714824,285.3659,06/03.0/2021,2000,g 15.5,4.0
# From MPC 75727
225P/LINEAR,e,21.3604,14.1927,3.8686,3.650132,0.1413322,0.63805618,247.4639,06/03.0/2021,2000,g 18.0,4.0
# From MPC106349
226P/Pigott-LINEAR-Kowalski,e,44.0224,54.0021,341.0395,3.767432,0.1347833,0.52849340,233.6285,06/03.0/2021,2000,g 12.5,4.0
# From MPC102956
227P/Catalina-LINEAR,e,6.5233,48.1147,91.3467,3.554680,0.1470630,0.51247035,210.9148,06/03.0/2021,2000,g 16.5,2.0
# From MPEC 2020-L06
228P/LINEAR,e,7.9116,30.9800,115.1773,4.171045,0.1157009,0.17638733,52.0812,06/03.0/2021,2000,g 14.5,2.0
# From MPC106349
229P/Gibbs,e,26.0913,157.9083,223.9642,3.929780,0.1265178,0.37708348,186.4264,06/03.0/2021,2000,g 13.0,4.0
# From MPC110497
230P/LINEAR,e,15.4777,107.0101,313.3911,3.454670,0.1534950,0.54601987,315.6054,06/03.0/2021,2000,g 13.0,4.0
# From MPEC 2020-K19
231P/LINEAR-NEAT,e,12.3365,133.0124,43.3963,4.027393,0.1219461,0.24742379,87.4620,06/03.0/2021,2000,g 14.5,2.0
# From MPC112394
232P/Hill,e,14.6343,56.0154,53.4016,4.479709,0.1039512,0.33416908,82.0357,06/03.0/2021,2000,g 11.5,4.0
# From MPEC 2021-J28
233P/La Sagra,e,11.2837,74.9220,27.0419,3.030528,0.1868214,0.41181955,45.6528,06/03.0/2021,2000,g 15.0,4.0
# From MPC110497
234P/LINEAR,e,11.5310,179.5636,357.2575,3.800609,0.1330223,0.25478557,195.0017,06/03.0/2021,2000,g 12.0,4.0
# From MPC110497
235P/LINEAR,e,8.9367,203.4016,333.3689,3.966146,0.1247817,0.32322506,146.4355,06/03.0/2021,2000,g 12.0,4.0
# From MPC107688
236P/LINEAR,e,16.3369,245.6233,119.2290,3.730209,0.1368058,0.50891541,176.4655,06/03.0/2021,2000,g 14.0,4.0
# From MPC109593
237P/LINEAR,e,14.0163,245.3945,25.2160,3.512442,0.1497236,0.43451061,253.6286,06/03.0/2021,2000,g 14.5,2.0
# From MPC107688
238P/Read,e,1.2642,51.6353,324.5154,3.165989,0.1749604,0.25228388,295.5415,06/03.0/2021,2000,g 14.5,4.0
# From MPEC 2021-F20
239P/LINEAR,e,11.2971,255.9134,220.4468,4.470578,0.1042698,0.63011490,91.2808,06/03.0/2021,2000,g 17.5,2.0
# From MPEC 2021-F20
240P/NEAT,e,23.5106,74.9140,351.9626,3.866751,0.1296238,0.44894096,144.4629,06/03.0/2021,2000,g 12.1,4.0
# From MPEC 2020-W26
241P/LINEAR,e,21.1066,305.4832,111.4235,4.915370,0.0904419,0.60990390,355.2258,06/03.0/2021,2000,g 13.5,4.0
# From MPC 81861
242P/Spahr,e,32.4916,180.4179,246.0244,5.483008,0.0767672,0.27810599,259.5032,06/03.0/2021,2000,g  8.0,4.0
# From MPC111774
243P/NEAT,e,7.6405,87.6415,283.5316,3.831077,0.1314386,0.36012329,132.9522,06/03.0/2021,2000,g 12.5,4.0
# From MPEC 2020-W26
244P/Scotti,e,2.2594,353.9906,92.9748,4.894673,0.0910162,0.19878890,311.6327,06/03.0/2021,2000,g  9.0,4.0
# From MPEC 2020-K19
245P/WISE,e,21.1976,316.6471,316.8697,4.044362,0.1211795,0.45720000,146.6721,06/03.0/2021,2000,g 14.0,4.0
# From MPEC 2021-F20
246P/NEAT,e,15.9853,78.7464,176.3189,4.017454,0.1223990,0.28712009,12.2515,06/03.0/2021,2000,g 10.4,4.0
# From MPEC 2021-F20
247P/LINEAR,e,13.6531,54.0088,47.4735,3.969437,0.1246266,0.62422072,113.9696,06/03.0/2021,2000,g 16.5,2.0
# From MPC 75730
248P/Gibbs,e,6.3486,207.7695,209.8679,5.991616,0.0672029,0.63826070,254.7391,06/03.0/2021,2000,g 14.0,4.0
# From MPEC 2021-BE3
249P/LINEAR,e,8.3945,239.1656,65.6296,2.762589,0.2146494,0.82010618,72.6594,06/03.0/2021,2000,g 15.5,4.0
# From MPC110497
250P/Larson,e,13.1781,73.5237,46.1465,3.761548,0.1350996,0.40097734,164.8791,06/03.0/2021,2000,g 14.5,4.0
# From MPC104795
251P/LINEAR,e,23.3944,219.3817,31.2849,3.510779,0.1498300,0.50509493,212.4292,06/03.0/2021,2000,g 16.5,2.0
# From MPC102956
252P/LINEAR,e,10.4092,190.9460,343.3003,3.050284,0.1850093,0.67198193,352.9808,06/03.0/2021,2000,g 17.5,4.0
# From MPEC 2020-FB5
253P/PANSTARRS,e,4.9433,146.8830,230.6368,3.466859,0.1526862,0.41386739,171.2633,06/03.0/2021,2000,g 14.5,4.0
# From MPEC 2021-F20
254P/McNaught,e,32.5727,129.1749,219.5099,4.611889,0.0995144,0.31976208,24.5008,06/03.0/2021,2000,g 11.0,4.0
# From NK 2214
255P/Levy,e,13.4656,275.9268,185.8199,2.943786,0.1951393,0.71295235,270.0316,06/03.0/2021,2000,g  9.0,4.0
# From MPC 84027
256P/LINEAR,e,27.6275,81.3510,124.2613,4.637532,0.0986901,0.41808413,296.1042,06/03.0/2021,2000,g 14.0,2.0
# From MPEC 2021-F20
257P/Catalina,e,20.2232,207.7343,117.6525,3.761848,0.1350835,0.43045079,35.8342,06/03.0/2021,2000,g 14.1,4.0
# From MPEC 2021-L04
258P/PANSTARRS,e,6.7460,126.2484,26.0258,4.399146,0.1068197,0.20866330,37.2753,06/03.0/2021,2000,g 13.0,4.0
# From MPC106349
259P/Garradd,e,15.8903,51.4518,257.6327,2.730154,0.2184859,0.33856886,305.2931,06/03.0/2021,2000,g 15.5,4.0
# From MPEC 2020-SI8
260P/McNaught,e,15.0566,349.3394,18.4092,3.622812,0.1429339,0.60911663,90.3181,06/03.0/2021,2000,g 13.5,4.0
# From MPEC 2021-J28
261P/Larson,e,6.0753,291.1590,67.1544,3.490153,0.1511602,0.42320241,108.0887,06/03.0/2021,2000,g 14.0,4.0
# From MPC 82322
262P/McNaught-Russell,e,29.2152,217.8855,171.0112,6.874613,0.0546804,0.81560564,169.8256,06/03.0/2021,2000,g 13.5,4.0
# From MPC 89018
263P/Gibbs,e,11.5350,105.7254,34.5789,3.049949,0.1850398,0.59220340,247.6913,06/03.0/2021,2000,g  9.0,4.0
# From MPC114608
264P/Larsen,e,25.1429,220.6654,346.7297,3.895265,0.1282031,0.37486339,85.6560,06/03.0/2021,2000,g 13.0,4.0
# From MPC 79870
265P/LINEAR,e,14.3650,342.9269,33.4286,4.251535,0.1124308,0.64742050,12.8116,06/03.0/2021,2000,g 14.5,4.0
# From MPEC 2021-F20
266P/Christensen,e,3.4269,4.9966,97.7923,3.534285,0.1483378,0.33943972,60.7689,06/03.0/2021,2000,g 14.7,4.0
# From MPC114608
267P/LONEOS,e,6.1387,228.6240,114.1410,3.211860,0.1712258,0.61426958,179.1082,06/03.0/2021,2000,g 19.5,4.0
# From MPC 92277
268P/Bernardi,e,16.1421,127.5799,359.9141,4.544556,0.1017342,0.47465613,227.0492,06/03.0/2021,2000,g 14.0,4.0
# From MPC104795
269P/Jedicke,e,7.0726,241.7091,225.8703,7.076969,0.0523520,0.43045780,127.6684,06/03.0/2021,2000,g 10.0,4.0
# From MPC 88332
270P/Gehrels,e,2.9197,222.9791,209.8343,6.665849,0.0572692,0.46746002,167.1151,06/03.0/2021,2000,g  8.0,4.0
# From MPC 92277
271P/van Houten-Lemmon,e,6.8699,9.3081,36.4011,7.043644,0.0527240,0.39417934,152.0190,06/03.0/2021,2000,g 11.0,4.0
# From MPC 81862
272P/NEAT,e,18.0761,109.4672,27.9391,4.456742,0.1047557,0.45432564,317.1336,06/03.0/2021,2000,g 16.0,2.0
# From MPC 82723
273P/Pons-Gambart,e,136.7942,320.4011,20.3273,31.82365,0.0054901,0.97410707,0.0000,12/18.2325/2012,2000,g 11.5,4.0
# From MPC 88332
274P/Tombaugh-Tenagra,e,15.8173,81.3392,38.4882,4.372774,0.1077875,0.43900988,326.6347,06/03.0/2021,2000,g 13.0,4.0
# From MPC 81862
275P/Hermann,e,21.2749,348.7572,174.0644,5.772953,0.0710570,0.71238974,219.3835,06/03.0/2021,2000,g 17.0,4.0
# From MPEC 2020-K19
276P/Vorobjov,e,14.8116,211.3968,199.7243,5.317433,0.0803806,0.26723810,256.1827,06/03.0/2021,2000,g 11.5,4.0
# From MPEC 2021-F20
277P/LINEAR,e,16.7780,276.3445,152.3158,3.853056,0.1303155,0.50572960,20.1764,06/03.0/2021,2000,g 15.1,4.0
# From MPEC 2020-W26
278P/McNaught,e,6.6875,15.4032,238.0801,3.696023,0.1387082,0.43556575,36.6186,06/03.0/2021,2000,g 14.0,4.0
# From MPC100285
279P/La Sagra,e,5.0524,346.2326,5.7902,3.574247,0.1458570,0.39847286,260.0031,06/03.0/2021,2000,g 14.0,4.0
# From MPC 89013
280P/Larsen,e,11.7753,131.3928,104.7930,4.529437,0.1022440,0.41764102,278.9594,06/03.0/2021,2000,g 12.5,4.0
# From MPC 83145
281P/MOSS,e,4.7195,87.1768,26.7491,4.871755,0.0916592,0.17187551,304.1420,06/03.0/2021,2000,g 11.0,4.0
# From MPC134066
282P/,e,5.8113,9.2949,217.6139,4.242233,0.1128008,0.18886510,343.8111,06/03.0/2021,2000,g 13.5,2.0
# From MPEC 2021-BE3
283P/Spacewatch,e,14.4548,161.1290,22.2531,4.139550,0.1170238,0.48492390,348.6458,06/03.0/2021,2000,g 16.0,2.0
# From MPEC 2020-K19
284P/McNaught,e,11.8610,144.2630,202.4884,3.680214,0.1396029,0.37623166,345.7844,06/03.0/2021,2000,g 13.0,4.0
# From MPC 85339
285P/LINEAR,e,25.0362,185.5005,178.4178,4.508167,0.1029684,0.61838760,299.4076,06/03.0/2021,2000,g 15.0,4.0
# From MPEC 2021-J28
286P/Christensen,e,17.0452,283.9586,24.8320,4.109253,0.1183204,0.42534899,319.3454,06/03.0/2021,2000,g 14.0,4.0
# From MPC 96868
287P/Christensen,e,16.3199,139.0452,188.9323,4.165553,0.1159298,0.27092580,271.7517,06/03.0/2021,2000,g 13.5,4.0
# From MPC134066
288P/,e,3.2391,83.1847,280.4896,3.050203,0.1850167,0.20144596,309.5142,06/03.0/2021,2000,g 16.0,2.0
# From MPEC 2021-F20
289P/Blanpain,e,5.8948,68.8854,9.8638,3.046951,0.1853130,0.68543665,98.2235,06/03.0/2021,2000,g 19.0,4.0
# From MPC 95214
290P/Jager,e,20.1757,302.6907,181.9581,6.205672,0.0637560,0.63006381,170.4619,06/03.0/2021,2000,g 10.5,4.0
# From MPC 89314
291P/NEAT,e,6.3074,238.0537,173.7854,4.523858,0.1024332,0.43557801,288.0990,06/03.0/2021,2000,g 13.0,4.0
# From MPC115887
292P/Li,e,24.2612,90.9798,319.4560,6.107263,0.0653032,0.58831583,175.0418,06/03.0/2021,2000,g 12.5,4.0
# From MPEC 2021-L04
293P/Spacewatch,e,9.0564,78.4082,41.0480,3.643918,0.1416939,0.41827399,23.4874,06/03.0/2021,2000,g 14.5,4.0
# From MPEC 2020-SI8
294P/LINEAR,e,18.2214,312.5832,235.3836,3.203217,0.1719193,0.59652740,94.6253,06/03.0/2021,2000,g 15.5,4.0
# From MPC 93589
295P/LINEAR,e,21.0737,7.4255,72.9027,5.306503,0.0806290,0.61616260,208.5490,06/03.0/2021,2000,g 12.0,4.0
# From MPEC 2020-SI8
296P/Garradd,e,25.2286,263.6203,350.1045,3.497388,0.1506913,0.47877987,38.8986,06/03.0/2021,2000,g 14.0,4.0
# From MPC102956
297P/Beshore,e,10.3283,97.6600,132.5201,3.442599,0.1543030,0.31927119,20.2245,06/03.0/2021,2000,g 15.0,4.0
# From MPC114609
